{
  "type": "FeatureCollection",
  "features": [
    {
      "type": "Feature",
      "properties": {
        "norad_id": 33913,
        "name": "COSMOS 2251 DEB",
        "group": "cosmos-2251-debris",
        "lat": -37.3642689474215,
        "lon": 165.0074778979227,
        "alt_km": 710.8250808802959,
        "timestamp": "2025-12-15T22:44:29.323234+00:00",
        "meta_object_name": "COSMOS 2251 DEB",
        "meta_object_id": "1993-036DS",
        "meta_epoch": "2025-12-14T22:36:44.358048",
        "meta_mean_motion": 14.48495775,
        "meta_eccentricity": 0.00481582,
        "meta_inclination": 74.0328,
        "meta_ra_of_asc_node": 179.5185,
        "meta_arg_of_pericenter": 281.6897,
        "meta_mean_anomaly": 198.3772,
        "meta_ephemeris_type": 0,
        "meta_classification_type": "U",
        "meta_norad_cat_id": 33913,
        "meta_element_set_no": 999,
        "meta_rev_at_epoch": 88489,
        "meta_bstar": 0.00047894941,
        "meta_mean_motion_dot": 1.795e-05,
        "meta_mean_motion_ddot": 0,
        "tle_line1": "1 33913U 93036DS  25348.94218007  .00001795  00000+0  47895-3 0  9990",
        "tle_line2": "2 33913  74.0328 179.5185 0048158 281.6897 198.3772 14.48495775884896"
      },
      "geometry": {
        "type": "Point",
        "coordinates": [
          165.0074778979227,
          -37.3642689474215
        ]
      }
    },
    {
      "type": "Feature",
      "properties": {
        "norad_id": 33914,
        "name": "COSMOS 2251 DEB",
        "group": "cosmos-2251-debris",
        "lat": 51.953138588181666,
        "lon": 168.43695791396075,
        "alt_km": 770.6013743976746,
        "timestamp": "2025-12-15T22:44:29.323244+00:00",
        "meta_object_name": "COSMOS 2251 DEB",
        "meta_object_id": "1993-036DT",
        "meta_epoch": "2025-12-15T08:40:08.327136",
        "meta_mean_motion": 13.7198658,
        "meta_eccentricity": 0.0301021,
        "meta_inclination": 74.0913,
        "meta_ra_of_asc_node": 10.7747,
        "meta_arg_of_pericenter": 113.176,
        "meta_mean_anomaly": 356.0455,
        "meta_ephemeris_type": 0,
        "meta_classification_type": "U",
        "meta_norad_cat_id": 33914,
        "meta_element_set_no": 999,
        "meta_rev_at_epoch": 84117,
        "meta_bstar": 0.00030973982,
        "meta_mean_motion_dot": 3.69e-06,
        "meta_mean_motion_ddot": 0,
        "tle_line1": "1 33914U 93036DT  25349.36120749  .00000369  00000+0  30974-3 0  9999",
        "tle_line2": "2 33914  74.0913  10.7747 0301021 113.1760 356.0455 13.71986580841175"
      },
      "geometry": {
        "type": "Point",
        "coordinates": [
          168.43695791396075,
          51.953138588181666
        ]
      }
    },
    {
      "type": "Feature",
      "properties": {
        "norad_id": 33915,
        "name": "COSMOS 2251 DEB",
        "group": "cosmos-2251-debris",
        "lat": -67.99565349402285,
        "lon": -106.69947146441133,
        "alt_km": 833.7300520676499,
        "timestamp": "2025-12-15T22:44:29.323254+00:00",
        "meta_object_name": "COSMOS 2251 DEB",
        "meta_object_id": "1993-036DU",
        "meta_epoch": "2025-12-15T05:07:54.723648",
        "meta_mean_motion": 14.3508887,
        "meta_eccentricity": 0.01042813,
        "meta_inclination": 74.0435,
        "meta_ra_of_asc_node": 29.5731,
        "meta_arg_of_pericenter": 121.4703,
        "meta_mean_anomaly": 303.1171,
        "meta_ephemeris_type": 0,
        "meta_classification_type": "U",
        "meta_norad_cat_id": 33915,
        "meta_element_set_no": 999,
        "meta_rev_at_epoch": 87793,
        "meta_bstar": 0.0003789541,
        "meta_mean_motion_dot": 1.124e-05,
        "meta_mean_motion_ddot": 0,
        "tle_line1": "1 33915U 93036DU  25349.21382782  .00001124  00000+0  37895-3 0  9990",
        "tle_line2": "2 33915  74.0435  29.5731 0104281 121.4703 303.1171 14.35088870877931"
      },
      "geometry": {
        "type": "Point",
        "coordinates": [
          -106.69947146441133,
          -67.99565349402285
        ]
      }
    },
    {
      "type": "Feature",
      "properties": {
        "norad_id": 33916,
        "name": "COSMOS 2251 DEB",
        "group": "cosmos-2251-debris",
        "lat": -6.561292136274427,
        "lon": 33.43382849224446,
        "alt_km": 1205.7433628199715,
        "timestamp": "2025-12-15T22:44:29.323265+00:00",
        "meta_object_name": "COSMOS 2251 DEB",
        "meta_object_id": "1993-036DV",
        "meta_epoch": "2025-12-15T03:38:06.173376",
        "meta_mean_motion": 13.68616969,
        "meta_eccentricity": 0.03252483,
        "meta_inclination": 74.0526,
        "meta_ra_of_asc_node": 36.6259,
        "meta_arg_of_pericenter": 208.2513,
        "meta_mean_anomaly": 182.0111,
        "meta_ephemeris_type": 0,
        "meta_classification_type": "U",
        "meta_norad_cat_id": 33916,
        "meta_element_set_no": 999,
        "meta_rev_at_epoch": 83924,
        "meta_bstar": 0.00043917097,
        "meta_mean_motion_dot": 5.23e-06,
        "meta_mean_motion_ddot": 0,
        "tle_line1": "1 33916U 93036DV  25349.15146034  .00000523  00000+0  43917-3 0  9996",
        "tle_line2": "2 33916  74.0526  36.6259 0325248 208.2513 182.0111 13.68616969839249"
      },
      "geometry": {
        "type": "Point",
        "coordinates": [
          33.43382849224446,
          -6.561292136274427
        ]
      }
    },
    {
      "type": "Feature",
      "properties": {
        "norad_id": 33917,
        "name": "COSMOS 2251 DEB",
        "group": "cosmos-2251-debris",
        "lat": 67.16896023105389,
        "lon": 159.7221513988389,
        "alt_km": 1189.7864107876803,
        "timestamp": "2025-12-15T22:44:29.323275+00:00",
        "meta_object_name": "COSMOS 2251 DEB",
        "meta_object_id": "1993-036DW",
        "meta_epoch": "2025-12-15T01:19:18.441984",
        "meta_mean_motion": 13.69363728,
        "meta_eccentricity": 0.0331306,
        "meta_inclination": 74.107,
        "meta_ra_of_asc_node": 118.5971,
        "meta_arg_of_pericenter": 219.0531,
        "meta_mean_anomaly": 138.6247,
        "meta_ephemeris_type": 0,
        "meta_classification_type": "U",
        "meta_norad_cat_id": 33917,
        "meta_element_set_no": 999,
        "meta_rev_at_epoch": 83765,
        "meta_bstar": 0.00077556869,
        "meta_mean_motion_dot": 9.68e-06,
        "meta_mean_motion_ddot": 0,
        "tle_line1": "1 33917U 93036DW  25349.05507456  .00000968  00000+0  77557-3 0  9995",
        "tle_line2": "2 33917  74.1070 118.5971 0331306 219.0531 138.6247 13.69363728837651"
      },
      "geometry": {
        "type": "Point",
        "coordinates": [
          159.7221513988389,
          67.16896023105389
        ]
      }
    },
    {
      "type": "Feature",
      "properties": {
        "norad_id": 33920,
        "name": "COSMOS 2251 DEB",
        "group": "cosmos-2251-debris",
        "lat": 68.876347301729,
        "lon": 64.62848921010874,
        "alt_km": 717.6643322170639,
        "timestamp": "2025-12-15T22:44:29.323285+00:00",
        "meta_object_name": "COSMOS 2251 DEB",
        "meta_object_id": "1993-036DZ",
        "meta_epoch": "2025-12-14T21:34:08.732352",
        "meta_mean_motion": 14.58318284,
        "meta_eccentricity": 0.00381438,
        "meta_inclination": 74.0616,
        "meta_ra_of_asc_node": 294.325,
        "meta_arg_of_pericenter": 300.7262,
        "meta_mean_anomaly": 59.0147,
        "meta_ephemeris_type": 0,
        "meta_classification_type": "U",
        "meta_norad_cat_id": 33920,
        "meta_element_set_no": 999,
        "meta_rev_at_epoch": 88146,
        "meta_bstar": 0.0011755053,
        "meta_mean_motion_dot": 5.467e-05,
        "meta_mean_motion_ddot": 0,
        "tle_line1": "1 33920U 93036DZ  25348.89871218  .00005467  00000+0  11755-2 0  9996",
        "tle_line2": "2 33920  74.0616 294.3250 0038143 300.7262  59.0147 14.58318284881464"
      },
      "geometry": {
        "type": "Point",
        "coordinates": [
          64.62848921010874,
          68.876347301729
        ]
      }
    },
    {
      "type": "Feature",
      "properties": {
        "norad_id": 33922,
        "name": "COSMOS 2251 DEB",
        "group": "cosmos-2251-debris",
        "lat": 34.22451560320705,
        "lon": -49.47119387635249,
        "alt_km": 729.6548028501966,
        "timestamp": "2025-12-15T22:44:29.323296+00:00",
        "meta_object_name": "COSMOS 2251 DEB",
        "meta_object_id": "1993-036EB",
        "meta_epoch": "2025-12-14T21:57:27.150912",
        "meta_mean_motion": 14.49516037,
        "meta_eccentricity": 0.00232417,
        "meta_inclination": 74.0466,
        "meta_ra_of_asc_node": 143.6846,
        "meta_arg_of_pericenter": 254.0329,
        "meta_mean_anomaly": 263.8122,
        "meta_ephemeris_type": 0,
        "meta_classification_type": "U",
        "meta_norad_cat_id": 33922,
        "meta_element_set_no": 999,
        "meta_rev_at_epoch": 88609,
        "meta_bstar": 0.00044053691,
        "meta_mean_motion_dot": 1.667e-05,
        "meta_mean_motion_ddot": 0,
        "tle_line1": "1 33922U 93036EB  25348.91489758  .00001667  00000+0  44054-3 0  9992",
        "tle_line2": "2 33922  74.0466 143.6846 0023241 254.0329 263.8122 14.49516037886092"
      },
      "geometry": {
        "type": "Point",
        "coordinates": [
          -49.47119387635249,
          34.22451560320705
        ]
      }
    }
  ]
}